[{"OBJECT_NAME":"SALSAT","OBJECT_ID":"2020-068K","EPOCH":"2026-03-09T22:26:21.804576","MEAN_MOTION":15.28191989,"ECCENTRICITY":0.00082652,"INCLINATION":97.8859,"RA_OF_ASC_NODE":66.0795,"ARG_OF_PERICENTER":295.8051,"MEAN_ANOMALY":64.2334,"EPHEMERIS_TYPE":0,"CLASSIFICATION_TYPE":"U","NORAD_CAT_ID":46495,"ELEMENT_SET_NO":999,"REV_AT_EPOCH":30019,"BSTAR":0.00040842582,"MEAN_MOTION_DOT":0.00011156,"MEAN_MOTION_DDOT":0},{"OBJECT_NAME":"STARLINK-35712","OBJECT_ID":"2025-244K","EPOCH":"2026-03-09T18:18:22.937472","MEAN_MOTION":15.30192577,"ECCENTRICITY":2.901e-5,"INCLINATION":53.1612,"RA_OF_ASC_NODE":229.3588,"ARG_OF_PERICENTER":142.6213,"MEAN_ANOMALY":217.4808,"EPHEMERIS_TYPE":0,"CLASSIFICATION_TYPE":"U","NORAD_CAT_ID":66215,"ELEMENT_SET_NO":999,"REV_AT_EPOCH":2167,"BSTAR":0.00047189953,"MEAN_MOTION_DOT":0.0001364,"MEAN_MOTION_DDOT":0}]
